LEMUR-2-STARLIGHT       
1 66783U 25276DY  26165.43320610  .00005128  00000+0  42670-3 0  9998
2 66783  97.5275 236.1657 0015248 135.5868 224.6581 14.99017594 29786
LEMUR-2-TARTIFLETTE     
1 66784U 25276DZ  26165.76549095  .00005240  00000+0  43563-3 0  9992
2 66784  97.5278 236.4933 0013985 141.0876 219.1357 14.99052162 29833
LEMUR-2-VUKASIN         
1 66785U 25276EA  26165.76124238  .00005555  00000+0  44697-3 0  9999
2 66785  97.5315 236.7793 0006227 129.9474 230.2298 15.00345510 29780
LEMUR-2-HOTSPUR-TOM     
1 66786U 25276EB  26165.75788203  .00006241  00000+0  51919-3 0  9995
2 66786  97.5271 236.4672 0015573 134.8009 225.4484 14.98937399 29767
LEMUR-2-MYRA            
1 66787U 25276EC  26165.45901780  .00007153  00000+0  57491-3 0  9994
2 66787  97.5225 236.4293 0016259 150.4811 209.7335 15.00209332 29801
LEMUR-2 FIKRETDENGIZ    
1 67363U 26004A   26165.57952352  .00003211  00000+0  35285-3 0  9997
2 67363  97.8008 164.1774 0009897 140.5751 219.6188 14.88308082 22893
TWILIGHT-1 OBJECT B     
1 67364U 26004B   26165.73741794  .00001611  00000+0  18269-3 0  9997
2 67364  97.8061 164.3493 0009813 131.2434 228.9629 14.87694522 22929
LEMUR-2-MARIO-SOUSA     
1 67365U 26004C   26165.56347181  .00003836  00000+0  41837-3 0  9999
2 67365  97.7984 164.1582 0009459 140.7341 219.4563 14.88496382 22903
LEMUR-2-SONNENBLUME     
1 67367U 26004E   26165.56152123  .00002526  00000+0  27893-3 0  9992
2 67367  97.7980 164.1418 0008965 142.5756 217.6087 14.88304463 22909
LEMUR-2-WOBLER          
1 67368U 26004F   26165.82425242  .00003440  00000+0  37578-3 0  9994
2 67368  97.8033 164.5203 0009482 132.1348 228.0676 14.88503794 22945
LEMUR-2-GRAM-E-SUE      
1 67370U 26004H   26165.61315657  .00002499  00000+0  27497-3 0  9994
2 67370  97.7968 164.2075 0008040 143.1604 217.0166 14.88461396 22914
LEMUR-2-KATIE           
1 67387U 26004AA  26165.73745942  .00003448  00000+0  36289-3 0  9993
2 67387  97.8031 164.7812 0004828  98.5693 261.6072 14.90033966 22944
LEMUR-2-HCS-BAZUS       
1 67388U 26004AB  26165.53509034  .00005034  00000+0  52695-3 0  9994
2 67388  97.8014 164.5622 0004382  95.5857 264.5860 14.90046328 22917
