OBJECT_NAME,OBJECT_ID,EPOCH,MEAN_MOTION,ECCENTRICITY,INCLINATION,RA_OF_ASC_NODE,ARG_OF_PERICENTER,MEAN_ANOMALY,EPHEMERIS_TYPE,CLASSIFICATION_TYPE,NORAD_CAT_ID,ELEMENT_SET_NO,REV_AT_EPOCH,BSTAR,MEAN_MOTION_DOT,MEAN_MOTION_DDOT
LEMUR-2-STARLIGHT,2025-276DY,2026-06-14T10:23:49.007040,14.99017594,.00152482,97.5275,236.1657,135.5868,224.6581,0,U,66783,999,2978,.42669684E-3,.5128E-4,0
LEMUR-2-TARTIFLETTE,2025-276DZ,2026-06-14T18:22:18.418080,14.99052162,.0013985,97.5278,236.4933,141.0876,219.1357,0,U,66784,999,2983,.43563E-3,.524E-4,0
LEMUR-2-VUKASIN,2025-276EA,2026-06-14T18:16:11.341632,15.00345510,.0006227,97.5315,236.7793,129.9474,230.2298,0,U,66785,999,2978,.44697E-3,.5555E-4,0
LEMUR-2-HOTSPUR-TOM,2025-276EB,2026-06-14T18:11:21.007392,14.98937399,.0015573,97.5271,236.4672,134.8009,225.4484,0,U,66786,999,2976,.51919E-3,.6241E-4,0
LEMUR-2-MYRA,2025-276EC,2026-06-14T11:00:59.137920,15.00209332,.00162598,97.5225,236.4293,150.4811,209.7335,0,U,66787,999,2980,.57490776E-3,.7153E-4,0
LEMUR-2 FIKRETDENGIZ,2026-004A,2026-06-14T13:54:30.832128,14.88308082,.0009897,97.8008,164.1774,140.5751,219.6188,0,U,67363,999,2289,.35285E-3,.3211E-4,0
TWILIGHT-1 OBJECT B,2026-004B,2026-06-14T17:41:52.910016,14.87694522,.0009813,97.8061,164.3493,131.2434,228.9629,0,U,67364,999,2292,.18269E-3,.1611E-4,0
LEMUR-2-MARIO-SOUSA,2026-004C,2026-06-14T13:31:23.964384,14.88496382,.0009459,97.7984,164.1582,140.7341,219.4563,0,U,67365,999,2290,.41837E-3,.3836E-4,0
LEMUR-2-SONNENBLUME,2026-004E,2026-06-14T13:28:35.434272,14.88304463,.0008965,97.7980,164.1418,142.5756,217.6087,0,U,67367,999,2290,.27893E-3,.2526E-4,0
LEMUR-2-WOBLER,2026-004F,2026-06-14T19:46:55.409088,14.88503794,.0009482,97.8033,164.5203,132.1348,228.0676,0,U,67368,999,2294,.37578E-3,.344E-4,0
LEMUR-2-GRAM-E-SUE,2026-004H,2026-06-14T14:42:56.727648,14.88461396,.000804,97.7968,164.2075,143.1604,217.0166,0,U,67370,999,2291,.27497E-3,.2499E-4,0
LEMUR-2-KATIE,2026-004AA,2026-06-14T17:41:56.493888,14.90033966,.0004828,97.8031,164.7812,98.5693,261.6072,0,U,67387,999,2294,.36289E-3,.3448E-4,0
LEMUR-2-HCS-BAZUS,2026-004AB,2026-06-14T12:50:31.805376,14.90046328,.0004382,97.8014,164.5622,95.5857,264.5860,0,U,67388,999,2291,.52695E-3,.5034E-4,0
